NORAD_CAT_ID,OBJECT_NAME,OBJECT_TYPE,EPOCH,MEAN_MOTION,ECCENTRICITY,INCLINATION,RA_OF_ASC_NODE,ARG_OF_PERICENTER,MEAN_ANOMALY,BSTAR,MEAN_MOTION_DOT,MEAN_MOTION_DDOT,TLE_LINE0,TLE_LINE1,TLE_LINE2,SEMIMAJOR_AXIS,PERIOD,APOGEE,PERIGEE,DECAYED
53727.0,STARLINK-4701,PAYLOAD,2023-07-30 16:38:36,15.08838186,0.0001313,53.2159,212.2763,93.8259,266.2883,7.1471e-05,8.5e-06,0.0,0 STARLINK-4701,1 53727U 22107AD  23211.69347419  .00000850  00000-0  71471-4 0  9995,2 53727  53.2159 212.2763 0001313  93.8259 266.2883 15.08838186 50084,6917.886,95.438,540.659,538.843,0.0
53727.0,STARLINK-4701,PAYLOAD,2023-08-01 16:20:10,15.08836916,0.0001295,53.2162,203.3563,92.5343,267.5798,2.5293e-05,1.15e-06,0.0,0 STARLINK-4701,1 53727U 22107AD  23213.68067900  .00000115  00000-0  25293-4 0  9995,2 53727  53.2162 203.3563 0001295  92.5343 267.5798 15.08836916 50387,6917.89,95.438,540.651,538.859,0.0
53727.0,STARLINK-4701,PAYLOAD,2023-08-03 00:07:53,15.08838759,0.0001264,53.2165,197.4086,88.5095,271.6042,7.3735e-05,8.86e-06,0.0,0 STARLINK-4701,1 53727U 22107AD  23215.00547862  .00000886  00000-0  73735-4 0  9992,2 53727  53.2165 197.4086 0001264  88.5095 271.6042 15.08838759 50585,6917.884,95.438,540.624,538.875,0.0
53727.0,STARLINK-4701,PAYLOAD,2023-08-04 03:09:27,15.08833179,0.0001298,53.2164,192.3519,87.3293,272.7848,3.3057e-05,2.38e-06,0.0,0 STARLINK-4701,1 53727U 22107AD  23216.13156610  .00000238  00000-0  33057-4 0  9998,2 53727  53.2164 192.3519 0001298  87.3293 272.7848 15.08833179 50759,6917.901,95.438,540.664,538.868,0.0
53727.0,STARLINK-4701,PAYLOAD,2023-08-04 15:52:32,15.08839952,0.0001312,53.2165,189.9734,86.9807,273.1335,5.6062e-05,6.04e-06,0.0,0 STARLINK-4701,1 53727U 22107AD  23216.66148201  .00000604  00000-0  56062-4 0  9991,2 53727  53.2165 189.9734 0001312  86.9807 273.1335 15.08839952 50834,6917.881,95.438,540.653,538.838,0.0
53727.0,STARLINK-4701,PAYLOAD,2023-08-05 03:00:13,15.08847565,0.0001324,53.2165,187.8915,86.5964,273.518,9.5395e-05,1.231e-05,0.0,0 STARLINK-4701,1 53727U 22107AD  23217.12515535  .00001231  00000-0  95395-4 0  9990,2 53727  53.2165 187.8915 0001324  86.5964 273.5180 15.08847565 50904,6917.857,95.437,540.638,538.806,0.0
53727.0,STARLINK-4701,PAYLOAD,2023-08-06 04:26:23,15.08845534,0.0001382,53.2164,183.1348,78.5541,281.5606,0.0001066,1.409e-05,0.0,0 STARLINK-4701,1 53727U 22107AD  23218.18499440  .00001409  00000-0  10660-3 0  9991,2 53727  53.2164 183.1348 0001382  78.5541 281.5606 15.08845534 51062,6917.863,95.437,540.685,538.772,0.0
53727.0,STARLINK-4701,PAYLOAD,2023-08-07 04:17:11,15.08832643,0.0001237,53.2157,178.675,94.4137,265.6997,-7.6142e-05,-1.499e-05,0.0,0 STARLINK-4701,1 53727U 22107AD  23219.17860841 -.00001499  00000-0 -76142-4 0  9997,2 53727  53.2157 178.6750 0001237  94.4137 265.6997 15.08832643 51217,6917.903,95.438,540.624,538.912,0.0
53727.0,STARLINK-4701,PAYLOAD,2023-08-07 13:49:30,15.08838279,0.0001271,53.2159,176.8907,87.181,272.9328,-3.4464e-05,-8.36e-06,0.0,0 STARLINK-4701,1 53727U 22107AD  23219.57604508 -.00000836  00000-0 -34464-4 0  9992,2 53727  53.2159 176.8907 0001271  87.1810 272.9328 15.08838279 51274,6917.886,95.438,540.63,538.871,0.0
53727.0,STARLINK-4701,PAYLOAD,2023-08-08 07:18:43,15.08853365,0.0001375,53.2161,173.6199,128.3155,231.7961,9.8788e-05,1.285e-05,0.0,0 STARLINK-4701,1 53727U 22107AD  23220.30467175  .00001285  00000-0  98788-4 0  9998,2 53727  53.2161 173.6199 0001375 128.3155 231.7961 15.08853365 51381,6917.84,95.437,540.656,538.753,0.0
53727.0,STARLINK-4701,PAYLOAD,2023-08-08 13:40:16,15.08846472,0.0001193,53.2163,172.431,99.5598,260.5529,4.9231e-05,4.96e-06,0.0,0 STARLINK-4701,1 53727U 22107AD  23220.56963782  .00000496  00000-0  49231-4 0  9993,2 53727  53.2163 172.4310 0001193  99.5598 260.5529 15.08846472 51429,6917.861,95.437,540.551,538.9,0.0
53727.0,STARLINK-4701,PAYLOAD,2023-08-08 21:37:13,15.08830013,0.0001385,53.2184,170.9468,111.0324,249.0817,0.00015113,2.117e-05,0.0,0 STARLINK-4701,1 53727U 22107AD  23220.90084914  .00002117  00000-0  15113-3 0  9995,2 53727  53.2184 170.9468 0001385 111.0324 249.0817 15.08830013 51470,6917.911,95.438,540.734,538.818,0.0
53727.0,STARLINK-4701,PAYLOAD,2023-08-10 07:00:18,15.08842392,0.0001124,53.2155,164.6985,102.7396,257.3721,7.5445e-05,9.13e-06,0.0,0 STARLINK-4701,1 53727U 22107AD  23222.29188603  .00000913  00000-0  75445-4 0  9996,2 53727  53.2155 164.6985 0001124 102.7396 257.3721 15.08842392 51681,6917.873,95.437,540.516,538.961,0.0
53727.0,STARLINK-4701,PAYLOAD,2023-08-11 02:04:57,15.08826076,0.0001163,53.2151,161.1299,99.996,260.1163,0.00033089,4.98e-05,0.0,0 STARLINK-4701,1 53727U 22107AD  23223.08677351  .00004980  00000-0  33089-3 0  9992,2 53727  53.2151 161.1299 0001163  99.9960 260.1163 15.08826076 51801,6917.923,95.438,540.593,538.983,0.0
53727.0,STARLINK-4701,PAYLOAD,2023-08-11 13:12:38,15.08842124,0.0001193,53.2194,159.0461,94.9183,265.1946,0.00010067,1.315e-05,0.0,0 STARLINK-4701,1 53727U 22107AD  23223.55044585  .00001315  00000-0  10067-3 0  9991,2 53727  53.2194 159.0461 0001193  94.9183 265.1946 15.08842124 51873,6917.874,95.437,540.564,538.914,0.0
53727.0,STARLINK-4701,PAYLOAD,2023-08-12 19:24:58,15.08839157,9.31e-05,53.2164,153.3994,89.8828,270.227,7.913e-05,9.72e-06,0.0,0 STARLINK-4701,1 53727U 22107AD  23224.80900931  .00000972  00000-0  79130-4 0  9991,2 53727  53.2164 153.3994 0000931  89.8828 270.2270 15.08839157 52067,6917.883,95.438,540.392,539.104,0.0
53727.0,STARLINK-4701,PAYLOAD,2023-08-13 04:57:16,15.08842696,0.0001404,53.215,151.6151,90.2636,269.8517,0.00018234,2.615e-05,0.0,0 STARLINK-4701,1 53727U 22107AD  23225.20644415  .00002615  00000-0  18234-3 0  9991,2 53727  53.2150 151.6151 0001404  90.2636 269.8517 15.08842696 52124,6917.872,95.437,540.708,538.766,0.0
53727.0,STARLINK-4701,PAYLOAD,2023-08-14 01:37:18,15.08835433,0.0001209,53.2151,147.7494,89.8088,270.3043,0.00014661,2.046e-05,0.0,0 STARLINK-4701,1 53727U 22107AD  23226.06757188  .00002046  00000-0  14661-3 0  9996,2 53727  53.2151 147.7494 0001209  89.8088 270.3043 15.08835433 52255,6917.894,95.438,540.596,538.923,0.0
53727.0,STARLINK-4701,PAYLOAD,2023-08-15 03:03:28,15.08845158,0.0001497,53.2175,142.9932,91.6751,268.4412,3.7399e-05,3.07e-06,0.0,0 STARLINK-4701,1 53727U 22107AD  23227.12740932  .00000307  00000-0  37399-4 0  9995,2 53727  53.2175 142.9932 0001497  91.6751 268.4412 15.08845158 52413,6917.865,95.437,540.765,538.694,0.0
53727.0,STARLINK-4701,PAYLOAD,2023-08-15 18:57:19,15.08839291,0.0001568,53.2185,140.0205,95.1966,264.9206,6.5531e-05,7.55e-06,0.0,0 STARLINK-4701,1 53727U 22107AD  23227.78981430  .00000755  00000-0  65531-4 0  9993,2 53727  53.2185 140.0205 0001568  95.1966 264.9206 15.08839291 52516,6917.883,95.438,540.832,538.663,0.0
53727.0,STARLINK-4701,PAYLOAD,2023-08-16 04:29:38,15.08846329,0.0001611,53.2168,138.2348,93.2939,266.8237,0.00011712,1.577e-05,0.0,0 STARLINK-4701,1 53727U 22107AD  23228.18724828  .00001577  00000-0  11712-3 0  9998,2 53727  53.2168 138.2348 0001611  93.2939 266.8237 15.08846329 52573,6917.861,95.437,540.841,538.612,0.0
53727.0,STARLINK-4701,PAYLOAD,2023-08-16 18:48:07,15.0883594,0.0001546,53.2165,135.5583,94.3567,265.7602,8.9043e-05,1.129e-05,0.0,0 STARLINK-4701,1 53727U 22107AD  23228.78341646  .00001129  00000-0  89043-4 0  9993,2 53727  53.2165 135.5583 0001546  94.3567 265.7602 15.08835940 52668,6917.893,95.438,540.827,538.688,0.0
53727.0,STARLINK-4701,PAYLOAD,2023-08-17 04:20:25,15.08848,0.0001431,53.2165,133.7732,91.6684,268.4472,7.3184e-05,8.77e-06,0.0,0 STARLINK-4701,1 53727U 22107AD  23229.18084899  .00000877  00000-0  73184-4 0  9990,2 53727  53.2165 133.7732 0001431  91.6684 268.4472 15.08848000 52720,6917.856,95.437,540.711,538.731,0.0
53727.0,STARLINK-4701,PAYLOAD,2023-08-17 18:38:54,15.08841309,0.0001522,53.2151,131.0963,95.046,265.0706,2.4341e-05,9.9e-07,0.0,0 STARLINK-4701,1 53727U 22107AD  23229.77701540  .00000099  00000-0  24341-4 0  9991,2 53727  53.2151 131.0963 0001522  95.0460 265.0706 15.08841309 52811,6917.876,95.437,540.794,538.688,0.0
53727.0,STARLINK-4701,PAYLOAD,2023-08-18 02:35:49,15.08846836,0.0001375,53.2164,129.6104,89.5617,270.5532,6.8383e-05,8.01e-06,0.0,0 STARLINK-4701,1 53727U 22107AD  23230.10821047  .00000801  00000-0  68383-4 0  9990,2 53727  53.2164 129.6104 0001375  89.5617 270.5532 15.08846836 52866,6917.859,95.437,540.676,538.773,0.0
53727.0,STARLINK-4701,PAYLOAD,2023-08-19 02:26:36,15.08841766,0.0001395,53.2167,125.1504,84.85,275.2652,7.9867e-05,9.83e-06,0.0,0 STARLINK-4701,1 53727U 22107AD  23231.10181407  .00000983  00000-0  79867-4 0  9990,2 53727  53.2167 125.1504 0001395  84.8500 275.2652 15.08841766 53015,6917.875,95.437,540.705,538.775,0.0
53727.0,STARLINK-4701,PAYLOAD,2023-08-20 02:17:24,15.08838224,0.0001578,53.217,120.69,85.1296,274.9877,9.1491e-05,1.168e-05,0.0,0 STARLINK-4701,1 53727U 22107AD  23232.09541969  .00001168  00000-0  91491-4 0  9995,2 53727  53.2170 120.6900 0001578  85.1296 274.9877 15.08838224 53164,6917.886,95.438,540.842,538.659,0.0
53727.0,STARLINK-4701,PAYLOAD,2023-08-21 02:08:10,15.08847899,0.0001467,53.2167,116.2279,86.1197,273.9963,0.00021973,3.212e-05,0.0,0 STARLINK-4701,1 53727U 22107AD  23233.08901473  .00003212  00000-0  21973-3 0  9994,2 53727  53.2167 116.2279 0001467  86.1197 273.9963 15.08847899 53318,6917.856,95.437,540.736,538.706,0.0
53727.0,STARLINK-4701,PAYLOAD,2023-08-21 19:37:25,15.08837965,0.0001473,53.2155,112.9543,100.4694,259.6464,2.3967e-05,9.3e-07,0.0,0 STARLINK-4701,1 53727U 22107AD  23233.81766046  .00000093  00000-0  23967-4 0  9990,2 53727  53.2155 112.9543 0001473 100.4694 259.6464 15.08837965 53423,6917.887,95.438,540.771,538.733,0.0
53727.0,STARLINK-4701,PAYLOAD,2023-08-23 01:49:45,15.08843784,0.0001379,53.2162,107.3072,84.879,275.236,3.6331e-05,2.9e-06,0.0,0 STARLINK-4701,1 53727U 22107AD  23235.07621819  .00000290  00000-0  36331-4 0  9996,2 53727  53.2162 107.3072 0001379  84.8790 275.2360 15.08843784 53619,6917.869,95.437,540.688,538.78,0.0
